GSAT0101 (PRN E11)      
1 37846U 11060A   20323.22395573 -.00000093  00000-0  00000+0 0  9994
2 37846  56.7217  37.0647 0001635 303.6692  56.3556  1.70475190 56521
GSAT0102 (PRN E12)      
1 37847U 11060B   20323.26596538 -.00000093  00000-0  00000+0 0  9993
2 37847  56.7227  37.0630 0003651 289.5244 142.4299  1.70475341 56529
GSAT0103 (PRN E19)      
1 38857U 12055A   20324.43898120  .00000055  00000-0  00000+0 0  9999
2 38857  55.0025 157.5155 0001060 238.2019 121.8357  1.70473791 50451
GSAT0104 (PRN E20)      
1 38858U 12055B   20323.78679964  .00000055  00000-0  00000+0 0  9990
2 38858  55.0033 157.5328 0000345 117.8651 242.1889  1.70473732 50397
GSAT0201 (PRN E18)      
1 40128U 14050A   20323.01686748 -.00000108  00000-0  00000-0 0  9995
2 40128  50.5411 355.2491 1655803 104.4083 274.5227  1.85519311 40524
GSAT0202 (PRN E14)      
1 40129U 14050B   20323.28003377 -.00000108  00000-0  00000-0 0  9996
2 40129  50.5757 354.2805 1653392 105.2301 273.6349  1.85520033 42697
GSAT0203 (PRN E26)      
1 40544U 15017A   20323.00508495 -.00000092  00000-0  00000+0 0  9993
2 40544  56.5152  37.1833 0004859 238.6497 121.3427  1.70475032 35134
GSAT0204 (PRN E22)      
1 40545U 15017B   20321.61289799 -.00000089  00000-0  00000-0 0  9999
2 40545  56.5213  37.2383 0003654 207.3497 152.6693  1.70475138 35116
GSAT0205 (PRN E24)      
1 40889U 15045A   20323.61463601 -.00000031  00000-0  00000+0 0  9995
2 40889  56.0360 277.8548 0004739 348.6162  11.3528  1.70474582 32299
GSAT0206 (PRN E30)      
1 40890U 15045B   20323.24758767 -.00000030  00000-0  00000-0 0  9996
2 40890  56.0353 277.8613 0003540 329.6412  30.3163  1.70474552 32318
GSAT0209 (PRN E09)      
1 41174U 15079A   20322.24817829  .00000063  00000-0  00000+0 0  9997
2 41174  55.0183 157.2750 0002854 344.3104  15.7408  1.70473179 30610
GSAT0208 (PRN E08)      
1 41175U 15079B   20324.22764577  .00000055  00000-0  00000+0 0  9990
2 41175  55.0157 157.2194 0002210 356.6518   3.3947  1.70473194 30657
GSAT0211 (PRN E02)      
1 41549U 16030A   20323.17557800 -.00000030  00000-0  00000-0 0  9990
2 41549  56.1786 277.7357 0004998 310.1408  49.7930  1.70474361 27940
GSAT0210 (PRN E01)      
1 41550U 16030B   20324.05504883 -.00000031  00000-0  00000+0 0  9993
2 41550  56.1775 277.7131 0004488 288.0982  71.8345  1.70474297 27937
GSAT0207 (PRN E07)      
1 41859U 16069A   20324.30070087  .00000054  00000-0  00000+0 0  9993
2 41859  54.6760 157.5424 0002170 324.7472  35.2869  1.70473200 24928
GSAT0212 (PRN E03)      
1 41860U 16069B   20323.56757256  .00000055  00000-0  00000+0 0  9993
2 41860  54.6730 157.5613 0002460  11.9099 348.1476  1.70473158 24932
GSAT0213 (PRN E04)      
1 41861U 16069C   20323.93328898  .00000055  00000-0  00000+0 0  9991
2 41861  54.6752 157.5553 0001069 272.4879  87.5497  1.70473304 24945
GSAT0214 (PRN E05)      
1 41862U 16069D   20322.32062603  .00000061  00000-0  00000+0 0  9990
2 41862  54.6737 157.5954 0000423 321.7939  38.2631  1.70473200 24906
GSAT0215 (PRN E21)      
1 43055U 17079A   20322.81043960 -.00000030  00000-0  00000+0 0  9994
2 43055  56.1541 277.5867 0003823 284.2565  75.6770  1.70473510 18257
GSAT0216 (PRN E25)      
1 43056U 17079B   20323.10309282 -.00000030  00000-0  00000+0 0  9990
2 43056  56.1543 277.5784 0005657 281.8959  78.0181  1.70473647 18248
GSAT0217 (PRN E27)      
1 43057U 17079C   20320.39021735 -.00000032  00000-0  00000-0 0  9996
2 43057  56.1539 277.6535 0005344 290.8931  69.0158  1.70473619 18212
GSAT0218 (PRN E31)      
1 43058U 17079D   20323.54318393 -.00000030  00000-0  00000+0 0  9993
2 43058  56.1517 277.5643 0006027 278.3837  81.5275  1.70473595 18260
GSAT0221 (PRN E15)      
1 43564U 18060A   20322.26924386 -.00000090  00000-0  00000+0 0  9995
2 43564  56.9015  36.8707 0005097 255.9033 104.0803  1.70476123 14438
GSAT0222 (PRN E33)      
1 43565U 18060B   20323.07567376 -.00000092  00000-0  00000+0 0  9990
2 43565  56.9041  36.8483 0004633 261.9023  98.0860  1.70476175 14487
GSAT0219 (PRN E36)      
1 43566U 18060C   20321.53630162 -.00000088  00000-0  00000+0 0  9999
2 43566  56.9053  36.8921 0004399 255.0026 104.9879  1.70475994 14434
GSAT0220 (PRN E13)      
1 43567U 18060D   20321.75619329 -.00000089  00000-0  00000-0 0  9998
2 43567  56.9040  36.8861 0004487 256.5428 103.4469  1.70475829 14429
